INMARSAT 4-F2 (SOUTHPA*)
1 28899U 05044A   26094.25044443 -.00000259  00000+0  00000+0 0  9991
2 28899   4.9990  43.7841 0003358 350.2275  32.2080  1.00271646 74787
GSAT-8 (GAGAN/PRN 127)  
1 37605U 11022A   26094.18711986  .00000085  00000+0  00000+0 0  9990
2 37605   1.9401  82.7126 0005727 224.3210   7.8885  1.00271641 52475
LUCH 5A (SDCM/PRN 140)  
1 37951U 11074B   26094.23030840 -.00000047  00000+0  00000+0 0  9999
2 37951   8.5670  74.8810 0003176 284.4600  83.0440  1.00271206 52311
SES-5 (EGNOS/PRN 136)   
1 38652U 12036A   26094.17723981  .00000033  00000+0  00000+0 0  9999
2 38652   0.0597 304.3178 0001981  71.5629 245.3841  1.00270782 43711
GSAT-10 (GAGAN/PRN 128) 
1 38779U 12051B   26094.22614111 -.00000165  00000+0  00000+0 0  9993
2 38779   0.0847 265.6871 0006175 171.5252 279.7188  1.00273174 49350
LUCH 5B (SDCM/PRN 125)  
1 38977U 12061A   26094.17299313 -.00000135  00000+0  00000+0 0  9998
2 38977  10.3265  50.6027 0002451 229.3603 318.4857  1.00273620 48863
ASTRA 5B (EGNOS/PRN 123)
1 39617U 14011B   26094.19419966  .00000136  00000+0  00000+0 0  9997
2 39617   0.0751 305.5388 0003399  48.5875 291.7774  1.00272806 43925
LUCH 5V (SDCM/PRN 141)  
1 39727U 14023A   26093.98774959 -.00000267  00000+0  00000+0 0  9990
2 39727   4.9517  70.4707 0002857 318.1693 253.9960  1.00270652 43615
GSAT-15 (GAGAN/PRN 139) 
1 41028U 15065A   26094.11711435 -.00000258  00000+0  00000+0 0  9990
2 41028   0.0197 230.1949 0002568 178.7148 279.1669  1.00270260 38053
EUTELSAT 117 WEST B (W*)
1 41589U 16038B   26094.08173277 -.00000013  00000+0  00000+0 0  9994
2 41589   0.0176  54.8867 0000361 214.5742 195.3788  1.00271113 35922
SES-15 (WAAS/PRN 133)   
1 42709U 17026A   26093.64002528  .00000058  00000+0  00000+0 0  9996
2 42709   0.0340 327.2328 0000758  49.7417 276.2283  1.00269959  6681
QZS-2 (QZSS/PRN 194)    
1 42738U 17028A   26093.28308766 -.00000218  00000+0  00000+0 0  9992
2 42738  39.5466 244.2448 0742295 270.5974 278.6523  1.00254002  6878
QZS-3 (QZSS/PRN 199)    
1 42917U 17048A   26094.25600255 -.00000348  00000+0  00000+0 0  9993
2 42917   0.0631 146.2980 0002116 230.5952  34.8794  1.00271642 31519
QZS-4 (QZSS/PRN 195)    
1 42965U 17062A   26093.56063234 -.00000337  00000+0  00000+0 0  9993
2 42965  40.1534 344.4369 0747488 270.4779 279.3726  1.00273009 31059
BEIDOU-3 G1 (PRN 130)   
1 43683U 18085A   26091.86294493 -.00000284  00000+0  00000+0 0  9992
2 43683   2.8820  99.4564 0002058  12.9832 168.3736  1.00268589 27296
EUTELSAT 5 WEST B (EGN*)
1 44624U 19067A   26094.17524647 -.00000043  00000+0  00000+0 0  9996
2 44624   0.0659  10.2087 0003440  12.9125 227.4504  1.00272696 23698
BEIDOU-3 G2 (PRN 144)   
1 45344U 20017A   26094.12081959 -.00000140  00000+0  00000+0 0  9990
2 45344   2.7162  46.1345 0002817 334.6591 295.1846  1.00272125 22517
BEIDOU-3 G3 (PRN 143)   
1 45807U 20040A   26094.05555934 -.00000353  00000+0  00000+0 0  9997
2 45807   2.2659  67.2230 0004504 326.6647 289.0502  1.00270244 21321
GALAXY 30 (WAAS/PRN 135)
1 46114U 20056C   26094.22282666  .00000000  00000+0  00000+0 0  9992
2 46114   0.0179 206.7448 0002451 194.0795 106.9342  1.00271919 20550
QZS-1R (QZSS/PRN 196)   
1 49336U 21096A   26093.84475572 -.00000244  00000+0  00000+0 0  9994
2 49336  37.3098  80.6771 0749991 270.3739 280.6669  1.00281199 16269
QZS-6 (QZSS/PRN 200)    
1 62876U 25023A   26094.14003204 -.00000234  00000+0  00000+0 0  9994
2 62876   0.0365 278.7887 0002089 106.1244 308.4704  1.00274238  4219
